ORBCOMM FM24            
1 25478U 98053D   24281.74998383  .00007370  00000+0  25286-2 0  9990
2 25478  45.0093  24.8259 0000751 265.5508  94.5254 14.36599610361129
ORBCOMM FM25            
1 25479U 98053E   24281.57902219  .00006628  00000+0  22798-2 0  9995
2 25479  45.0083  23.8881 0001828  62.6991 297.4043 14.36582937361390
ORBCOMM FM26            
1 25480U 98053F   24281.71956457  .00005685  00000+0  19904-2 0  9993
2 25480  45.0079  18.0461 0004054  92.4352 267.6960 14.35877565361348
ORBCOMM FM27            
1 25481U 98053G   24281.77694650  .00006698  00000+0  23035-2 0  9999
2 25481  45.0067  23.2080 0002161 233.7639 126.3009 14.36577349361350
ORBCOMM FM28            
1 25482U 98053H   24281.51253144  .00005622  00000+0  19280-2 0  9994
2 25482  45.0063 322.4624 0002011 138.3453 221.7548 14.36923696361991
ORBCOMM FM30            
1 25980U 99065A   24281.80628581  .00005782  00000+0  20173-2 0  9994
2 25980  45.0304 203.3124 0005100 187.8746 172.2023 14.36027588298150
ORBCOMM FM31            
1 25981U 99065B   24281.49465234  .00005447  00000+0  19049-2 0  9992
2 25981  45.0215 198.3815 0002724 222.1500 137.9138 14.35996056297666
ORBCOMM FM32            
1 25982U 99065C   24281.78882839  .00006131  00000+0  21796-2 0  9992
2 25982  45.0145 211.8522 0004842 220.9400 139.1084 14.35020125298326
